IRIDIUM 159             
1 43578U 18061K   25357.87794476 -.00000015  00000+0 -12380-4 0  9992
2 43578  86.3986 130.0141 0001912  91.6844 268.4571 14.34217916388251
IRIDIUM 180             
1 43922U 19002A   25357.24952420  .00000150  00000+0  46518-4 0  9995
2 43922  86.3958  67.1474 0001961  95.9444 264.1976 14.34218374363770
IRIDIUM 176             
1 43923U 19002B   25357.59838943  .00000917  00000+0  14147-3 0  9990
2 43923  86.6079  66.9706 0002373  95.6691 264.4797 14.72265137373419
IRIDIUM 168             
1 43924U 19002C   25357.94086646  .00000245  00000+0  80467-4 0  9998
2 43924  86.3962  66.9308 0002179  98.2544 261.8899 14.34218218363853
IRIDIUM 173             
1 43925U 19002D   25357.92817615  .00000308  00000+0  10305-3 0  9998
2 43925  86.3958  66.8321 0002143 102.1034 258.0402 14.34219340363836
IRIDIUM 169             
1 43926U 19002E   25357.69347741  .00000353  00000+0  10879-3 0  9997
2 43926  86.4222  98.5832 0002552 120.3176 239.8275 14.38606304364991
IRIDIUM 172             
1 43927U 19002F   25357.29392167  .00000210  00000+0  67892-4 0  9996
2 43927  86.3958  67.1047 0001984  95.6353 264.5069 14.34217647363759
IRIDIUM 175             
1 43928U 19002G   25357.45775151  .00000855  00000+0  13165-3 0  9991
2 43928  86.1497   8.8284 0003146  81.5779 278.5794 14.72254046373385
